{
  "type": "FeatureCollection",
  "features": [
    {
      "type": "Feature",
      "properties": {
        "norad_id": 31938,
        "name": "FENGYUN 1C DEB",
        "group": "fengyun-1c-debris",
        "lat": -17.953927810901664,
        "lon": 13.872324527352488,
        "alt_km": 611.0219682627076,
        "timestamp": "2025-12-06T09:34:17.198725+00:00",
        "meta_object_name": "FENGYUN 1C DEB",
        "meta_object_id": "1999-025CMP",
        "meta_epoch": "2025-12-05T07:57:37.297152",
        "meta_mean_motion": 14.95490911,
        "meta_eccentricity": 0.01533356,
        "meta_inclination": 98.9309,
        "meta_ra_of_asc_node": 9.7362,
        "meta_arg_of_pericenter": 89.9056,
        "meta_mean_anomaly": 271.9731,
        "meta_ephemeris_type": 0,
        "meta_classification_type": "U",
        "meta_norad_cat_id": 31938,
        "meta_element_set_no": 999,
        "meta_rev_at_epoch": 99025,
        "meta_bstar": 0.00069032583,
        "meta_mean_motion_dot": 9.611e-05,
        "meta_mean_motion_ddot": 0,
        "tle_line1": "1 31938U 99025CMP 25339.33168168  .00009611  00000+0  69033-3 0  9997",
        "tle_line2": "2 31938  98.9309   9.7362 0153335  89.9056 271.9731 14.95490911990256"
      },
      "geometry": {
        "type": "Point",
        "coordinates": [
          13.872324527352488,
          -17.953927810901664
        ]
      }
    },
    {
      "type": "Feature",
      "properties": {
        "norad_id": 31944,
        "name": "FENGYUN 1C DEB",
        "group": "fengyun-1c-debris",
        "lat": -39.98000252411114,
        "lon": 135.55119806338874,
        "alt_km": 807.916878664857,
        "timestamp": "2025-12-06T09:34:17.198735+00:00",
        "meta_object_name": "FENGYUN 1C DEB",
        "meta_object_id": "1999-025CMV",
        "meta_epoch": "2025-12-05T05:25:34.154400",
        "meta_mean_motion": 14.11765981,
        "meta_eccentricity": 0.01519652,
        "meta_inclination": 99.203,
        "meta_ra_of_asc_node": 126.5353,
        "meta_arg_of_pericenter": 25.3933,
        "meta_mean_anomaly": 98.7212,
        "meta_ephemeris_type": 0,
        "meta_classification_type": "U",
        "meta_norad_cat_id": 31944,
        "meta_element_set_no": 999,
        "meta_rev_at_epoch": 62804,
        "meta_bstar": 0.00085144569,
        "meta_mean_motion_dot": 1.684e-05,
        "meta_mean_motion_ddot": 0,
        "tle_line1": "1 31944U 99025CMV 25339.22608975  .00001684  00000+0  85145-3 0  9991",
        "tle_line2": "2 31944  99.2030 126.5353 0151965  25.3933  98.7212 14.11765981628045"
      },
      "geometry": {
        "type": "Point",
        "coordinates": [
          135.55119806338874,
          -39.98000252411114
        ]
      }
    },
    {
      "type": "Feature",
      "properties": {
        "norad_id": 31945,
        "name": "FENGYUN 1C DEB",
        "group": "fengyun-1c-debris",
        "lat": 73.74588687412697,
        "lon": -90.57220688784365,
        "alt_km": 856.0725136574874,
        "timestamp": "2025-12-06T09:34:17.198746+00:00",
        "meta_object_name": "FENGYUN 1C DEB",
        "meta_object_id": "1999-025CMW",
        "meta_epoch": "2025-12-05T04:21:02.992896",
        "meta_mean_motion": 14.20730618,
        "meta_eccentricity": 0.00605162,
        "meta_inclination": 98.9642,
        "meta_ra_of_asc_node": 55.4147,
        "meta_arg_of_pericenter": 309.2017,
        "meta_mean_anomaly": 50.3794,
        "meta_ephemeris_type": 0,
        "meta_classification_type": "U",
        "meta_norad_cat_id": 31945,
        "meta_element_set_no": 999,
        "meta_rev_at_epoch": 95088,
        "meta_bstar": 0.0029640312,
        "meta_mean_motion_dot": 6.47e-05,
        "meta_mean_motion_ddot": 0,
        "tle_line1": "1 31945U 99025CMW 25339.18128464  .00006470  00000+0  29640-2 0  9992",
        "tle_line2": "2 31945  98.9642  55.4147 0060516 309.2017  50.3794 14.20730618950888"
      },
      "geometry": {
        "type": "Point",
        "coordinates": [
          -90.57220688784365,
          73.74588687412697
        ]
      }
    },
    {
      "type": "Feature",
      "properties": {
        "norad_id": 31946,
        "name": "FENGYUN 1C DEB",
        "group": "fengyun-1c-debris",
        "lat": 74.7609303458606,
        "lon": 5.523725825714324,
        "alt_km": 771.2470696043383,
        "timestamp": "2025-12-06T09:34:17.198756+00:00",
        "meta_object_name": "FENGYUN 1C DEB",
        "meta_object_id": "1999-025CMX",
        "meta_epoch": "2025-12-05T21:20:37.077792",
        "meta_mean_motion": 14.16382781,
        "meta_eccentricity": 0.00831214,
        "meta_inclination": 98.8982,
        "meta_ra_of_asc_node": 40.1188,
        "meta_arg_of_pericenter": 69.6693,
        "meta_mean_anomaly": 291.3388,
        "meta_ephemeris_type": 0,
        "meta_classification_type": "U",
        "meta_norad_cat_id": 31946,
        "meta_element_set_no": 999,
        "meta_rev_at_epoch": 63911,
        "meta_bstar": 0.0022686613,
        "meta_mean_motion_dot": 4.619e-05,
        "meta_mean_motion_ddot": 0,
        "tle_line1": "1 31946U 99025CMX 25339.88931803  .00004619  00000+0  22687-2 0  9996",
        "tle_line2": "2 31946  98.8982  40.1188 0083121  69.6693 291.3388 14.16382781639110"
      },
      "geometry": {
        "type": "Point",
        "coordinates": [
          5.523725825714324,
          74.7609303458606
        ]
      }
    },
    {
      "type": "Feature",
      "properties": {
        "norad_id": 31948,
        "name": "FENGYUN 1C DEB",
        "group": "fengyun-1c-debris",
        "lat": -9.754112689628354,
        "lon": -141.2778933206734,
        "alt_km": 816.4615132175059,
        "timestamp": "2025-12-06T09:34:17.198766+00:00",
        "meta_object_name": "FENGYUN 1C DEB",
        "meta_object_id": "1999-025CMZ",
        "meta_epoch": "2025-12-02T23:07:31.547712",
        "meta_mean_motion": 14.28182343,
        "meta_eccentricity": 0.00237776,
        "meta_inclination": 99.3956,
        "meta_ra_of_asc_node": 36.6595,
        "meta_arg_of_pericenter": 50.177,
        "meta_mean_anomaly": 126.8754,
        "meta_ephemeris_type": 0,
        "meta_classification_type": "U",
        "meta_norad_cat_id": 31948,
        "meta_element_set_no": 999,
        "meta_rev_at_epoch": 94888,
        "meta_bstar": 0.0019459046,
        "meta_mean_motion_dot": 4.812e-05,
        "meta_mean_motion_ddot": 0,
        "tle_line1": "1 31948U 99025CMZ 25336.96355958  .00004812  00000+0  19459-2 0  9993",
        "tle_line2": "2 31948  99.3956  36.6595 0023777  50.1770 126.8754 14.28182343948884"
      },
      "geometry": {
        "type": "Point",
        "coordinates": [
          -141.2778933206734,
          -9.754112689628354
        ]
      }
    },
    {
      "type": "Feature",
      "properties": {
        "norad_id": 31949,
        "name": "FENGYUN 1C DEB",
        "group": "fengyun-1c-debris",
        "lat": -81.37593468155113,
        "lon": 48.437989342464626,
        "alt_km": 773.6043965568069,
        "timestamp": "2025-12-06T09:34:17.198776+00:00",
        "meta_object_name": "FENGYUN 1C DEB",
        "meta_object_id": "1999-025CNA",
        "meta_epoch": "2025-11-23T05:03:27.897984",
        "meta_mean_motion": 14.1687356,
        "meta_eccentricity": 0.01252295,
        "meta_inclination": 98.5419,
        "meta_ra_of_asc_node": 313.4803,
        "meta_arg_of_pericenter": 269.0533,
        "meta_mean_anomaly": 89.6292,
        "meta_ephemeris_type": 0,
        "meta_classification_type": "U",
        "meta_norad_cat_id": 31949,
        "meta_element_set_no": 999,
        "meta_rev_at_epoch": 95228,
        "meta_bstar": 0.00041514195,
        "meta_mean_motion_dot": 8.56e-06,
        "meta_mean_motion_ddot": 0,
        "tle_line1": "1 31949U 99025CNA 25327.21073956  .00000856  00000+0  41514-3 0  9999",
        "tle_line2": "2 31949  98.5419 313.4803 0125229 269.0533  89.6292 14.16873560952288"
      },
      "geometry": {
        "type": "Point",
        "coordinates": [
          48.437989342464626,
          -81.37593468155113
        ]
      }
    },
    {
      "type": "Feature",
      "properties": {
        "norad_id": 31952,
        "name": "FENGYUN 1C DEB",
        "group": "fengyun-1c-debris",
        "lat": -44.80660923740565,
        "lon": 106.07034195263914,
        "alt_km": 640.1394192842763,
        "timestamp": "2025-12-06T09:34:17.198786+00:00",
        "meta_object_name": "FENGYUN 1C DEB",
        "meta_object_id": "1999-025CND",
        "meta_epoch": "2025-12-04T01:36:07.301952",
        "meta_mean_motion": 14.53438816,
        "meta_eccentricity": 0.01142254,
        "meta_inclination": 98.9556,
        "meta_ra_of_asc_node": 94.5675,
        "meta_arg_of_pericenter": 318.9045,
        "meta_mean_anomaly": 40.3586,
        "meta_ephemeris_type": 0,
        "meta_classification_type": "U",
        "meta_norad_cat_id": 31952,
        "meta_element_set_no": 999,
        "meta_rev_at_epoch": 97083,
        "meta_bstar": 0.00085057064,
        "meta_mean_motion_dot": 3.805e-05,
        "meta_mean_motion_ddot": 0,
        "tle_line1": "1 31952U 99025CND 25338.06675118  .00003805  00000+0  85057-3 0  9993",
        "tle_line2": "2 31952  98.9556  94.5675 0114225 318.9045  40.3586 14.53438816970831"
      },
      "geometry": {
        "type": "Point",
        "coordinates": [
          106.07034195263914,
          -44.80660923740565
        ]
      }
    }
  ]
}